NORAD_CAT_ID,OBJECT_NAME,OBJECT_TYPE,EPOCH,MEAN_MOTION,ECCENTRICITY,INCLINATION,RA_OF_ASC_NODE,ARG_OF_PERICENTER,MEAN_ANOMALY,BSTAR,MEAN_MOTION_DOT,MEAN_MOTION_DDOT,TLE_LINE0,TLE_LINE1,TLE_LINE2,SEMIMAJOR_AXIS,PERIOD,APOGEE,PERIGEE,DECAYED
55312.0,STARLINK-5296,PAYLOAD,2024-05-28 12:17:41,14.98336773,0.0003237,69.9993,203.6028,268.1594,91.9195,6.9674e-05,7.39e-06,0.0,0 STARLINK-5296,1 55312U 23010AV  24149.51228614  .00000739  00000-0  69674-4 0  9996,2 55312  69.9993 203.6028 0003237 268.1594  91.9195 14.98336773 76068,6950.172,96.107,574.287,569.787,0.0
55312.0,STARLINK-5296,PAYLOAD,2024-05-28 13:53:49,14.98337087,0.0003237,69.9993,203.4345,268.2325,91.8463,7.1336e-05,7.58e-06,0.0,0 STARLINK-5296,1 55312U 23010AV  24149.57904560  .00000758  00000-0  71336-4 0  9992,2 55312  69.9993 203.4345 0003237 268.2325  91.8463 14.98337087 77260,6950.171,96.107,574.286,569.786,0.0
55312.0,STARLINK-5296,PAYLOAD,2024-05-29 04:19:02,14.98330873,0.0003165,69.9995,201.9196,270.3855,89.6941,4.0256e-05,3.87e-06,0.0,0 STARLINK-5296,1 55312U 23010AV  24150.17988871  .00000387  00000-0  40256-4 0  9992,2 55312  69.9995 201.9196 0003165 270.3855  89.6941 14.98330873 76161,6950.19,96.107,574.255,569.855,0.0
55312.0,STARLINK-5296,PAYLOAD,2024-05-29 13:55:50,14.9833087,0.0003203,69.9993,200.9094,269.1187,90.9605,2.8903e-05,2.52e-06,0.0,0 STARLINK-5296,1 55312U 23010AV  24150.58044876  .00000252  00000-0  28903-4 0  9991,2 55312  69.9993 200.9094 0003203 269.1187  90.9605 14.98330870 77410,6950.19,96.107,574.281,569.829,0.0
55312.0,STARLINK-5296,PAYLOAD,2024-05-30 04:21:03,14.98335029,0.0003202,69.9991,199.3945,267.2752,92.804,2.6553e-05,2.24e-06,0.0,0 STARLINK-5296,1 55312U 23010AV  24151.18128520  .00000224  00000-0  26553-4 0  9995,2 55312  69.9991 199.3945 0003202 267.2752  92.8040 14.98335029 76313,6950.177,96.107,574.268,569.817,0.0
55312.0,STARLINK-5296,PAYLOAD,2024-05-30 12:21:43,14.98334926,0.0003222,69.999,198.553,267.1479,92.9311,2.3236e-05,1.84e-06,0.0,0 STARLINK-5296,1 55312U 23010AV  24151.51508472  .00000184  00000-0  23236-4 0  9990,2 55312  69.9990 198.5530 0003222 267.1479  92.9311 14.98334926 77554,6950.178,96.107,574.282,569.803,0.0
55312.0,STARLINK-5296,PAYLOAD,2024-05-31 04:23:04,14.9832856,0.0003214,69.9989,196.8696,266.8475,93.2316,3.9576e-05,3.79e-06,0.0,0 STARLINK-5296,1 55312U 23010AV  24152.18268759  .00000379  00000-0  39576-4 0  9995,2 55312  69.9989 196.8696 0003214 266.8475  93.2316 14.98328560 76464,6950.197,96.107,574.296,569.829,0.0
55312.0,STARLINK-5296,PAYLOAD,2024-05-31 12:23:46,14.98303139,0.0003388,69.9992,196.0275,273.4916,86.5856,-0.00022532,-2.779e-05,0.0,0 STARLINK-5296,1 55312U 23010AV  24152.51651400 -.00002779  00000-0 -22532-3 0  9992,2 55312  69.9992 196.0275 0003388 273.4916  86.5856 14.98303139 76514,6950.276,96.109,574.496,569.786,0.0
55312.0,STARLINK-5296,PAYLOAD,2024-05-31 20:24:26,14.98308808,0.0003735,69.9986,195.1865,266.1111,93.9621,-0.00017729,-2.207e-05,0.0,0 STARLINK-5296,1 55312U 23010AV  24152.85031151 -.00002207  00000-0 -17729-3 0  9992,2 55312  69.9986 195.1865 0003735 266.1111  93.9621 14.98308808 76569,6950.258,96.108,574.719,569.528,0.0
55312.0,STARLINK-5296,PAYLOAD,2024-06-01 04:25:06,14.98324103,0.0003538,69.9986,194.3453,267.4954,92.58,-2.0855e-05,-3.42e-06,0.0,0 STARLINK-5296,1 55312U 23010AV  24153.18410172 -.00000342  00000-0 -20855-4 0  9996,2 55312  69.9986 194.3453 0003538 267.4954  92.5800 14.98324103 76619,6950.211,96.107,574.535,569.617,0.0
55312.0,STARLINK-5296,PAYLOAD,2024-06-01 12:25:43,14.98360286,0.0003424,69.9986,193.5039,273.7073,86.3694,0.00039602,4.639e-05,0.0,0 STARLINK-5296,1 55312U 23010AV  24153.51786838  .00004639  00000-0  39602-3 0  9998,2 55312  69.9986 193.5039 0003424 273.7073  86.3694 14.98360286 76665,6950.099,96.105,574.344,569.585,0.0
55312.0,STARLINK-5296,PAYLOAD,2024-06-01 20:26:24,14.98349162,0.0003434,69.9994,192.6609,273.6323,86.4443,0.0002696,3.127e-05,0.0,0 STARLINK-5296,1 55312U 23010AV  24153.85167469  .00003127  00000-0  26960-3 0  9992,2 55312  69.9994 192.6609 0003434 273.6323  86.4443 14.98349162 76714,6950.134,96.106,574.385,569.612,0.0
55312.0,STARLINK-5296,PAYLOAD,2024-06-02 04:27:05,14.98341629,0.0003193,69.9979,191.8169,267.7004,92.3789,0.00023875,2.758e-05,0.0,0 STARLINK-5296,1 55312U 23010AV  24154.18547864  .00002758  00000-0  23875-3 0  9991,2 55312  69.9979 191.8169 0003193 267.7004  92.3789 14.98341629 76765,6950.157,96.106,574.241,569.803,0.0
55312.0,STARLINK-5296,PAYLOAD,2024-06-02 12:27:46,14.98332534,0.0003632,69.9985,190.9787,270.826,89.2483,0.00011429,1.271e-05,0.0,0 STARLINK-5296,1 55312U 23010AV  24154.51928676  .00001271  00000-0  11429-3 0  9993,2 55312  69.9985 190.9787 0003632 270.8260  89.2483 14.98332534 76812,6950.185,96.107,574.574,569.526,0.0
55312.0,STARLINK-5296,PAYLOAD,2024-06-03 12:29:47,14.98334242,0.0003326,69.9987,188.4531,262.3292,97.7489,2.1445e-05,1.63e-06,0.0,0 STARLINK-5296,1 55312U 23010AV  24155.52068910  .00000163  00000-0  21445-4 0  9990,2 55312  69.9987 188.4531 0003326 262.3292  97.7489 14.98334242 76968,6950.18,96.107,574.356,569.733,0.0
55312.0,STARLINK-5296,PAYLOAD,2024-06-03 18:54:18,14.98378335,0.0003552,69.9987,187.7798,262.0283,98.0473,-0.00076703,-9.245e-05,0.0,0 STARLINK-5296,1 55312U 23010AV  24155.78771506 -.00009245  00000-0 -76703-3 0  9998,2 55312  69.9987 187.7798 0003552 262.0283  98.0473 14.98378335 77007,6950.043,96.104,574.377,569.44,0.0
55312.0,STARLINK-5296,PAYLOAD,2024-06-04 02:54:59,14.98334172,0.0003682,69.9987,186.9382,272.961,87.1128,7.1644e-06,-8e-08,0.0,0 STARLINK-5296,1 55312U 23010AV  24156.12152431 -.00000008  00000-0  71644-5 0  9995,2 55312  69.9987 186.9382 0003682 272.9610  87.1128 14.98334172 77057,6950.18,96.107,574.604,569.486,0.0
55312.0,STARLINK-5296,PAYLOAD,2024-06-04 10:55:39,14.98334492,0.0003678,69.9986,186.0966,272.8334,87.2404,1.7641e-05,1.17e-06,0.0,0 STARLINK-5296,1 55312U 23010AV  24156.45532321  .00000117  00000-0  17641-4 0  9997,2 55312  69.9986 186.0966 0003678 272.8334  87.2404 14.98334492 78292,6950.179,96.107,574.6,569.488,0.0
55312.0,STARLINK-5296,PAYLOAD,2024-06-04 18:56:20,14.98335428,0.0003722,69.9986,185.2549,272.6895,87.3838,-3.6579e-06,-1.37e-06,0.0,0 STARLINK-5296,1 55312U 23010AV  24156.78912210 -.00000137  00000-0 -36579-5 0  9998,2 55312  69.9986 185.2549 0003722 272.6895  87.3838 14.98335428 78348,6950.176,96.107,574.628,569.454,0.0
55312.0,STARLINK-5296,PAYLOAD,2024-06-05 04:33:08,14.98332495,0.000369,69.9985,184.2451,271.5855,88.4882,3.7353e-05,3.53e-06,0.0,0 STARLINK-5296,1 55312U 23010AV  24157.18968210  .00000353  00000-0  37353-4 0  9992,2 55312  69.9985 184.2451 0003690 271.5855  88.4882 14.98332495 77213,6950.185,96.107,574.615,569.486,0.0
55312.0,STARLINK-5296,PAYLOAD,2024-06-05 10:57:40,14.98332521,0.0003706,69.9984,183.5721,270.0956,89.9778,3.314e-05,3.02e-06,0.0,0 STARLINK-5296,1 55312U 23010AV  24157.45672160  .00000302  00000-0  33140-4 0  9992,2 55312  69.9984 183.5721 0003706 270.0956  89.9778 14.98332521 78444,6950.185,96.107,574.626,569.474,0.0
55312.0,STARLINK-5296,PAYLOAD,2024-06-05 18:58:21,14.98332052,0.0003684,69.9985,182.7304,269.3073,90.7664,3.1787e-05,2.86e-06,0.0,0 STARLINK-5296,1 55312U 23010AV  24157.79052153  .00000286  00000-0  31787-4 0  9999,2 55312  69.9985 182.7304 0003684 269.3073  90.7664 14.98332052 78497,6950.187,96.107,574.612,569.491,0.0
55312.0,STARLINK-5296,PAYLOAD,2024-06-06 04:35:10,14.98316759,0.0005058,69.9983,181.7205,291.3279,68.7339,-0.00015098,-1.894e-05,0.0,0 STARLINK-5296,1 55312U 23010AV  24158.19108969 -.00001894  00000-0 -15098-3 0  9995,2 55312  69.9983 181.7205 0005058 291.3279  68.7339 14.98316759 77369,6950.234,96.108,575.614,568.583,0.0
55312.0,STARLINK-5296,PAYLOAD,2024-06-06 10:59:41,14.98326589,0.0003502,69.9983,181.0468,269.5157,90.5601,-6.684e-05,-8.9e-06,0.0,0 STARLINK-5296,1 55312U 23010AV  24158.45812007 -.00000890  00000-0 -66840-4 0  9996,2 55312  69.9983 181.0468 0003502 269.5157  90.5601 14.98326589 77409,6950.203,96.107,574.502,569.634,0.0
55312.0,STARLINK-5296,PAYLOAD,2024-06-07 09:25:34,14.98324041,0.0003494,69.9984,178.69,268.9029,91.1729,-7.7448e-05,-1.017e-05,0.0,0 STARLINK-5296,1 55312U 23010AV  24159.39276346 -.00001017  00000-0 -77448-4 0  9998,2 55312  69.9984 178.6900 0003494 268.9029  91.1729 14.98324041 78730,6950.211,96.107,574.505,569.648,0.0
55312.0,STARLINK-5296,PAYLOAD,2024-06-07 19:02:22,14.98327317,0.0003498,69.9985,177.68,268.7969,91.2789,-3.0086e-05,-4.52e-06,0.0,0 STARLINK-5296,1 55312U 23010AV  24159.79332117 -.00000452  00000-0 -30086-4 0  9990,2 55312  69.9985 177.6800 0003498 268.7969  91.2789 14.98327317 77605,6950.201,96.107,574.497,569.635,0.0
55312.0,STARLINK-5296,PAYLOAD,2024-06-08 04:39:14,14.98169845,0.0005378,69.9984,176.6702,255.0444,105.012,0.0027983,0.00033323,0.0,0 STARLINK-5296,1 55312U 23010AV  24160.19391577  .00033323  00000-0  27983-2 0  9992,2 55312  69.9984 176.6702 0005378 255.0444 105.0120 14.98169845 77669,6950.688,96.117,576.291,568.815,0.0
55312.0,STARLINK-5296,PAYLOAD,2024-06-08 11:03:43,14.98324575,0.0003401,69.9986,175.9969,269.5355,90.5414,0.00011035,1.224e-05,0.0,0 STARLINK-5296,1 55312U 23010AV  24160.46091818  .00001224  00000-0  11035-3 0  9994,2 55312  69.9986 175.9969 0003401 269.5355  90.5414 14.98324575 78897,6950.21,96.107,574.438,569.711,0.0
55312.0,STARLINK-5296,PAYLOAD,2024-06-08 19:04:23,14.98324037,0.0003402,69.9987,175.1553,269.5564,90.5205,9.0274e-05,9.84e-06,0.0,0 STARLINK-5296,1 55312U 23010AV  24160.79472043  .00000984  00000-0  90274-4 0  9998,2 55312  69.9987 175.1553 0003402 269.5564  90.5205 14.98324037 77757,6950.211,96.107,574.441,569.712,0.0
55312.0,STARLINK-5296,PAYLOAD,2024-06-09 11:05:44,14.98327331,0.0003432,69.9987,173.4721,269.2566,90.82,0.00010833,1.2e-05,0.0,0 STARLINK-5296,1 55312U 23010AV  24161.46232135  .00001200  00000-0  10833-3 0  9993,2 55312  69.9987 173.4721 0003432 269.2566  90.8200 14.98327331 79049,6950.201,96.107,574.451,569.681,0.0
